NORAD_CAT_ID,OBJECT_NAME,OBJECT_TYPE,EPOCH,MEAN_MOTION,ECCENTRICITY,INCLINATION,RA_OF_ASC_NODE,ARG_OF_PERICENTER,MEAN_ANOMALY,BSTAR,MEAN_MOTION_DOT,MEAN_MOTION_DDOT,TLE_LINE0,TLE_LINE1,TLE_LINE2,SEMIMAJOR_AXIS,PERIOD,APOGEE,PERIGEE,DECAYED
56797.0,STARLINK-6058,PAYLOAD,2023-09-18 14:00:01,15.47744034,0.0003259,70.0,103.6723,264.0761,296.4797,-0.022195,-0.01048512,0.0,0 STARLINK-6058,1 56797U 23078AG  23261.58334491 -.01048512  00000-0 -22195-1 0  9998,2 56797  70.0000 103.6723 0003259 264.0761 296.4797 15.47744034  5907,6801.464,93.039,425.546,421.113,0.0
56797.0,STARLINK-6058,PAYLOAD,2023-09-18 20:00:01,15.47167985,0.0003295,69.9998,102.9926,270.9157,241.9418,-0.02288,-0.01058408,0.0,0 STARLINK-6058,1 56797U 23078AG  23261.83334491 -.01058408  00000-0 -22880-1 0  9992,2 56797  69.9998 102.9926 0003295 270.9157 241.9418 15.47167985 17645,6803.152,93.073,427.259,422.776,0.0
56797.0,STARLINK-6058,PAYLOAD,2023-09-18 22:00:00,15.46961048,0.0003341,70.0,102.7661,270.2323,346.6127,-0.022306,-0.01027446,0.0,0 STARLINK-6058,1 56797U 23078AG  23261.91667824 -.01027446  00000-0 -22306-1 0  9991,2 56797  70.0000 102.7661 0003341 270.2323 346.6127 15.46961048  5958,6803.759,93.086,427.897,423.351,0.0
56797.0,STARLINK-6058,PAYLOAD,2023-09-19 12:00:00,15.45628096,0.0003391,70.0001,101.1834,264.0571,359.0631,-0.023051,-0.01015123,0.0,0 STARLINK-6058,1 56797U 23078AG  23262.50001157 -.01015123  00000-0 -23051-1 0  9995,2 56797  70.0001 101.1834 0003391 264.0571 359.0631 15.45628096 17756,6807.67,93.166,431.844,427.227,0.0
56797.0,STARLINK-6058,PAYLOAD,2023-09-19 20:00:01,15.44881813,0.0003472,70.0,100.2804,269.7097,47.1776,-0.024626,-0.01053296,0.0,0 STARLINK-6058,1 56797U 23078AG  23262.83334491 -.01053296  00000-0 -24626-1 0  9993,2 56797  70.0000 100.2804 0003472 269.7097  47.1776 15.44881813 17805,6809.862,93.211,434.092,429.363,0.0
56797.0,STARLINK-6058,PAYLOAD,2023-09-20 12:00:00,15.43351894,0.0003468,70.0003,98.4771,267.726,153.9437,-0.025176,-0.01024888,0.0,0 STARLINK-6058,1 56797U 23078AG  23263.50001157 -.01024888  00000-0 -25176-1 0  9994,2 56797  70.0003  98.4771 0003468 267.7260 153.9437 15.43351894 17905,6814.362,93.303,438.59,433.864,0.0
56797.0,STARLINK-6058,PAYLOAD,2023-09-20 14:00:01,15.43189305,0.0003297,70.0006,98.252,266.3821,258.1202,-0.02642,-0.01065463,0.0,0 STARLINK-6058,1 56797U 23078AG  23263.58334491 -.01065463  00000-0 -26420-1 0  9999,2 56797  70.0006  98.2520 0003297 266.3821 258.1202 15.43189305  5918,6814.841,93.313,438.952,434.459,0.0
56797.0,STARLINK-6058,PAYLOAD,2023-09-20 20:00:01,15.42599358,0.000347,70.0004,97.5771,272.6405,200.0608,-0.026686,-0.0105597,0.0,0 STARLINK-6058,1 56797U 23078AG  23263.83334491 -.01055970  00000-0 -26686-1 0  9993,2 56797  70.0004  97.5771 0003470 272.6405 200.0608 15.42599358 17952,6816.578,93.349,440.808,436.078,0.0
56797.0,STARLINK-6058,PAYLOAD,2023-09-20 22:00:00,15.42393682,0.0003375,70.0005,97.352,272.1205,303.1979,-0.026,-0.01024721,0.0,0 STARLINK-6058,1 56797U 23078AG  23263.91667824 -.01024721  00000-0 -26000-1 0  9991,2 56797  70.0005  97.3520 0003375 272.1205 303.1979 15.42393682  5966,6817.184,93.361,441.35,436.748,0.0
56797.0,STARLINK-6058,PAYLOAD,2023-09-21 14:00:01,15.40909361,0.0003508,70.0007,95.5556,264.27,49.8856,-0.028687,-0.01086216,0.0,0 STARLINK-6058,1 56797U 23078AG  23264.58334491 -.01086216  00000-0 -28687-1 0  9996,2 56797  70.0007  95.5556 0003508 264.2700  49.8856 15.40909361  6017,6821.561,93.451,445.819,441.033,0.0
56797.0,STARLINK-6058,PAYLOAD,2023-09-21 20:00:01,15.40309355,0.0003406,70.0006,94.8829,269.5961,350.7074,-0.028374,-0.01041403,0.0,0 STARLINK-6058,1 56797U 23078AG  23264.83334491 -.01041403  00000-0 -28374-1 0  9996,2 56797  70.0006  94.8829 0003406 269.5961 350.7074 15.40309355 18112,6823.333,93.488,447.522,442.874,0.0
56797.0,STARLINK-6058,PAYLOAD,2023-09-21 22:00:01,15.40112568,0.0003492,70.0008,94.6587,272.315,89.9826,-0.028086,-0.01025691,0.0,0 STARLINK-6058,1 56797U 23078AG  23264.91668981 -.01025691  00000-0 -28086-1 0  9990,2 56797  70.0008  94.6587 0003492 272.3150  89.9826 15.40112568  5963,6823.914,93.5,448.162,443.396,0.0
56797.0,STARLINK-6058,PAYLOAD,2023-09-22 12:00:00,15.38789612,0.0003456,70.0007,93.0923,265.6507,88.4807,-0.029477,-0.01044115,0.0,0 STARLINK-6058,1 56797U 23078AG  23265.50001157 -.01044115  00000-0 -29477-1 0  9999,2 56797  70.0007  93.0923 0003456 265.6507  88.4807 15.38789612 18212,6827.824,93.58,452.049,447.33,0.0
56797.0,STARLINK-6058,PAYLOAD,2023-09-22 14:00:01,15.3862852,0.0003362,70.0007,92.8686,268.0333,187.5628,-0.031167,-0.01093757,0.0,0 STARLINK-6058,1 56797U 23078AG  23265.58334491 -.01093757  00000-0 -31167-1 0  9992,2 56797  70.0007  92.8686 0003362 268.0333 187.5628 15.38628520  5808,6828.301,93.59,452.462,447.87,0.0
56797.0,STARLINK-6058,PAYLOAD,2023-09-22 20:00:01,15.38027789,0.0003448,70.0006,92.1984,272.841,126.8473,-0.030575,-0.01055381,0.0,0 STARLINK-6058,1 56797U 23078AG  23265.83334491 -.01055381  00000-0 -30575-1 0  9993,2 56797  70.0006  92.1984 0003448 272.8410 126.8473 15.38027789 18263,6830.079,93.626,454.299,449.589,0.0
56797.0,STARLINK-6058,PAYLOAD,2023-09-22 22:00:00,15.37828153,0.0003255,70.0007,91.9751,274.2213,226.7138,-0.030126,-0.01034787,0.0,0 STARLINK-6058,1 56797U 23078AG  23265.91667824 -.01034787  00000-0 -30126-1 0  9990,2 56797  70.0007  91.9751 0003255 274.2213 226.7138 15.37828153  5858,6830.67,93.639,454.758,450.312,0.0
56797.0,STARLINK-6058,PAYLOAD,2023-09-23 14:00:01,15.3634701,0.0003306,70.0008,90.1913,265.7301,323.0917,-0.033613,-0.01095059,0.0,0 STARLINK-6058,1 56797U 23078AG  23266.58334491 -.01095059  00000-0 -33613-1 0  9998,2 56797  70.0008  90.1913 0003306 265.7301 323.0917 15.36347010 18385,6835.059,93.729,459.184,454.665,0.0
56797.0,STARLINK-6058,PAYLOAD,2023-09-24 14:00:01,15.34066167,0.0003465,70.0008,87.5229,268.1197,85.7143,-0.036295,-0.0109877,0.0,0 STARLINK-6058,1 56797U 23078AG  23267.58334491 -.01098770  00000-0 -36295-1 0  9991,2 56797  70.0008  87.5229 0003465 268.1197  85.7143 15.34066167  5963,6841.833,93.868,466.068,461.327,0.0
56797.0,STARLINK-6058,PAYLOAD,2023-09-24 22:00:00,15.33265161,0.0003436,70.0004,86.6352,274.981,118.716,-0.035105,-0.01040948,0.0,0 STARLINK-6058,1 56797U 23078AG  23267.91667824 -.01040948  00000-0 -35105-1 0  9990,2 56797  70.0004  86.6352 0003436 274.9810 118.7160 15.33265161 18583,6844.215,93.917,468.432,463.729,0.0
56797.0,STARLINK-6058,PAYLOAD,2023-09-25 14:00:01,15.31781187,0.0003306,70.0005,84.8632,270.6065,200.0908,-0.038926,-0.0109649,0.0,0 STARLINK-6058,1 56797U 23078AG  23268.58335648 -.01096490  00000-0 -38926-1 0  9997,2 56797  70.0005  84.8632 0003306 270.6065 200.0908 15.31781187 18681,6848.635,94.008,472.764,468.236,0.0
56797.0,STARLINK-6058,PAYLOAD,2023-09-25 22:00:00,15.30976191,0.0003278,70.0002,83.9787,275.7187,232.0413,-0.037373,-0.01031994,0.0,0 STARLINK-6058,1 56797U 23078AG  23268.91667824 -.01031994  00000-0 -37373-1 0  9991,2 56797  70.0002  83.9787 0003278 275.7187 232.0413 15.30976191  6018,6851.035,94.058,475.146,470.655,0.0
56797.0,STARLINK-6058,PAYLOAD,2023-09-26 14:00:01,15.29495501,0.0003241,70.0002,82.2127,267.511,311.7719,-0.041626,-0.01092324,0.0,0 STARLINK-6058,1 56797U 23078AG  23269.58335648 -.01092324  00000-0 -41626-1 0  9991,2 56797  70.0002  82.2127 0003241 267.5110 311.7719 15.29495501  5970,6855.456,94.149,479.543,475.1,0.0
56797.0,STARLINK-6058,PAYLOAD,2023-09-26 22:00:00,15.28694969,0.0003316,70.0,81.3313,272.7602,340.845,-0.040185,-0.01033785,0.0,0 STARLINK-6058,1 56797U 23078AG  23269.91667824 -.01033785  00000-0 -40185-1 0  9997,2 56797  70.0000  81.3313 0003316 272.7602 340.8450 15.28694969 18890,6857.85,94.198,481.989,477.44,0.0
56797.0,STARLINK-6058,PAYLOAD,2023-09-27 14:00:01,15.27214736,0.000341,70.0,79.5717,266.903,52.6861,-0.044825,-0.01096374,0.0,0 STARLINK-6058,1 56797U 23078AG  23270.58334491 -.01096374  00000-0 -44825-1 0  9991,2 56797  70.0000  79.5717 0003410 266.9030  52.6861 15.27214736 18996,6862.28,94.289,486.485,481.805,0.0
56797.0,STARLINK-6058,PAYLOAD,2023-09-28 14:00:01,15.24932764,0.000338,70.0001,76.9402,270.074,141.7354,-0.048219,-0.01100248,0.0,0 STARLINK-6058,1 56797U 23078AG  23271.58335648 -.01100248  00000-0 -48219-1 0  9994,2 56797  70.0001  76.9402 0003380 270.0740 141.7354 15.24932764 19149,6869.124,94.43,493.311,488.668,0.0
56797.0,STARLINK-6058,PAYLOAD,2023-09-28 16:00:30,15.24727764,0.0003252,69.9999,76.7204,271.2928,239.6758,-0.047822,-0.0108576,0.0,0 STARLINK-6058,1 56797U 23078AG  23271.66702546 -.01085760  00000-0 -47822-1 0  9998,2 56797  69.9999  76.7204 0003252 271.2928 239.6758 15.24727764  6030,6869.74,94.443,493.839,489.371,0.0
56797.0,STARLINK-6058,PAYLOAD,2023-09-28 22:00:01,15.24132846,0.0003375,69.9999,76.065,276.2026,164.5142,-0.046322,-0.01037318,0.0,0 STARLINK-6058,1 56797U 23078AG  23271.91668981 -.01037318  00000-0 -46322-1 0  9990,2 56797  69.9999  76.0650 0003375 276.2026 164.5142 15.24132846  5749,6871.528,94.48,495.712,491.073,0.0
56797.0,STARLINK-6058,PAYLOAD,2023-09-29 14:00:01,15.22648223,0.0003225,70.0002,74.318,271.0097,224.6796,-0.051565,-0.01099014,0.0,0 STARLINK-6058,1 56797U 23078AG  23272.58334491 -.01099014  00000-0 -51565-1 0  9996,2 56797  70.0002  74.3180 0003225 271.0097 224.6796 15.22648223 19298,6875.993,94.572,500.076,495.641,0.0
56797.0,STARLINK-6058,PAYLOAD,2023-09-30 06:00:00,15.21078455,0.0003166,70.0002,72.5749,269.8751,277.2299,-0.050379,-0.01030936,0.0,0 STARLINK-6058,1 56797U 23078AG  23273.25001157 -.01030936  00000-0 -50379-1 0  9991,2 56797  70.0002  72.5749 0003166 269.8751 277.2299 15.21078455  5958,6880.723,94.67,504.767,500.41,0.0
56797.0,STARLINK-6058,PAYLOAD,2023-09-30 14:00:01,15.20363415,0.0003197,70.0005,71.7049,270.1264,301.2919,-0.05499,-0.01110035,0.0,0 STARLINK-6058,1 56797U 23078AG  23273.58334491 -.01110035  00000-0 -54990-1 0  9999,2 56797  70.0005  71.7049 0003197 270.1264 301.2919 15.20363415 19452,6882.881,94.714,506.946,502.545,0.0
